TLE2=2 15772  71.1073  61.0983 0032886 107.2673 350.8948 14.21985689116180
TLE2=2 15483  74.0439 238.1190 0017929 152.4789  20.1682 14.37792391155824
TLE2=2 12465  81.2282 274.6647 0018563 338.2665  21.7788 15.42290849440369
TLE2=2 11672  82.5121 295.4846 0017031 119.4527 240.8394 14.90943734478336
TLE2=2 13403  81.1489 178.2289 0025471 123.3322 237.0355 15.24969039379615
TLE2=2 13154  81.1580 201.4842 0029058 283.1710  76.6274 15.10147564383534
TLE2=2 14820  82.5402 233.3240 0016579 294.2395  65.7089 14.85988944249489
TLE2=2 11574  74.0675  67.8270 0016954 239.0578 120.8913 14.42357239437916
TLE2=2 15945  82.5302  13.1730 0019577 146.9008 213.3438 14.86446440174690
TLE2=2 12139  82.9348 278.8336 0261374 136.4789 225.7400 15.11472903316508
TLE2=2 13819  81.1057 346.9279 0016741   9.4720 350.6837 15.46772572359877
TLE2=2 16182  71.0012 114.0551 0009567 244.7577 193.0382 14.16601633 89016
TLE2=2 14208  97.6142  86.2945 0021516 179.4025 180.7249 15.38701036332084
TLE2=2 14699  82.5415  95.4789 0012724 233.7903 126.2159 15.23982382274519
TLE2=2 13553  82.5671 129.6677 0018785 258.6633 172.8112 14.86677484330797
TLE2=2 13068  81.1743 146.1020 0023328 135.8983 224.4115 15.22126335406259
TLE2=2 12904  81.1609 198.6769 0012470 240.9613 119.0370 15.21520618975146
